$$SOE
2460154.500000000, A.D. 2023-Jul-29 00:00:00.0000, 1.587832862069156E+08, -2.506578477567285E+06, -1.004637568962673E+08,
2460161.500000000, A.D. 2023-Aug-05 00:00:00.0000, 1.603707121918834E+08, 1.243297117385088E+07, -9.648047401457652E+07,
2460168.500000000, A.D. 2023-Aug-12 00:00:00.0000, 1.607789903141077E+08, 2.728103137323089E+07, -9.178781090261860E+07,
2460175.500000000, A.D. 2023-Aug-19 00:00:00.0000, 1.599968885185462E+08, 4.192700375718632E+07, -8.641558048402861E+07,
2460182.500000000, A.D. 2023-Aug-26 00:00:00.0000, 1.580202769656160E+08, 5.625982075367627E+07, -8.039820824216835E+07,
2460189.500000000, A.D. 2023-Sep-02 00:00:00.0000, 1.548524111771153E+08, 7.016834642864531E+07, -7.377477632564279E+07,
2460196.500000000, A.D. 2023-Sep-09 00:00:00.0000, 1.505042410754405E+08, 8.354183162539351E+07, -6.658906578129727E+07,
2460203.500000000, A.D. 2023-Sep-16 00:00:00.0000, 1.449947412094041E+08, 9.627043424878807E+07, -5.888959027943128E+07,
2460210.500000000, A.D. 2023-Sep-23 00:00:00.0000, 1.383512556859643E+08, 1.082458157477862E+08, -5.072961350677712E+07,
2460217.500000000, A.D. 2023-Sep-30 00:00:00.0000, 1.306098482374926E+08, 1.193618252419776E+08, -4.216714095728873E+07,
2460224.500000000, A.D. 2023-Oct-07 00:00:00.0000, 1.218156432332570E+08, 1.295152801560614E+08, -3.326487543747066E+07,
2460231.500000000, A.D. 2023-Oct-14 00:00:00.0000, 1.120231442392537E+08, 1.386068478275203E+08, -2.409012466702559E+07,
2460238.500000000, A.D. 2023-Oct-21 00:00:00.0000, 1.012965153306694E+08, 1.465420344567246E+08, -1.471464731166635E+07,
2460245.500000000, A.D. 2023-Oct-28 00:00:00.0000, 8.970980101351604E+07, 1.532322850633169E+08, -5.214422428658411E+06,
2460252.500000000, A.D. 2023-Nov-04 00:00:00.0000, 7.734705743925560E+07, 1.585961917866274E+08, 4.330671855799899E+06,
2460259.500000000, A.D. 2023-Nov-11 00:00:00.0000, 6.430236738520258E+07, 1.625608030144950E+08, 1.383728449236349E+07,
2460266.500000000, A.D. 2023-Nov-18 00:00:00.0000, 5.067970921377522E+07, 1.650630188557786E+08, 2.321913706517985E+07,
2460273.500000000, A.D. 2023-Nov-25 00:00:00.0000, 3.659264760709750E+07, 1.660510497103240E+08, 3.238770242512056E+07,
2460280.500000000, A.D. 2023-Dec-02 00:00:00.0000, 2.216381397381195E+07, 1.654859047751881E+08, 4.125302690056522E+07,
2460287.500000000, A.D. 2023-Dec-09 00:00:00.0000, 7.524147336126119E+06, 1.633428671903094E+08, 4.972470065013085E+07,
2460294.500000000, A.D. 2023-Dec-16 00:00:00.0000, -7.188129103261363E+06, 1.596129040918585E+08, 5.771297307403730E+07,
2460301.500000000, A.D. 2023-Dec-23 00:00:00.0000, -2.182881464938022E+07, 1.543039529933932E+08, 6.513000342652124E+07,
2460308.500000000, A.D. 2023-Dec-30 00:00:00.0000, -3.624933158342819E+07, 1.474420184678131E+08, 7.189122997067848E+07,
2460315.500000000, A.D. 2024-Jan-06 00:00:00.0000, -5.029861553274990E+07, 1.390720039071928E+08, 7.791683102618544E+07,
2460322.500000000, A.D. 2024-Jan-13 00:00:00.0000, -6.382526972274590E+07, 1.292582029841559E+08, 8.313323938065380E+07,
2460329.500000000, A.D. 2024-Jan-20 00:00:00.0000, -7.667994066197552E+07, 1.180843860414943E+08, 8.747466185899329E+07,
2460336.500000000, A.D. 2024-Jan-27 00:00:00.0000, -8.871785697496763E+07, 1.056534257802167E+08, 9.088454769097388E+07,
2460343.500000000, A.D. 2024-Feb-03 00:00:00.0000, -9.980145378523873E+07, 9.208642252488434E+07, 9.331694363358605E+07,
2460350.500000000, A.D. 2024-Feb-10 00:00:00.0000, -1.098029897795185E+08, 7.752131325155891E+07, 9.473767242439558E+07,
2460357.500000000, A.D. 2024-Feb-17 00:00:00.0000, -1.186070547468268E+08, 6.211097635608792E+07, 9.512527444955504E+07,
2460364.500000000, A.D. 2024-Feb-24 00:00:00.0000, -1.261128628475267E+08, 4.602087371753269E+07, 9.447166074538408E+07,
2460371.500000000, A.D. 2024-Mar-02 00:00:00.0000, -1.322362321033749E+08, 2.942630048265073E+07, 9.278243838075687E+07,
2460378.500000000, A.D. 2024-Mar-09 00:00:00.0000, -1.369111637246343E+08, 1.250933827067979E+07, 9.007688599707019E+07,
2460385.500000000, A.D. 2024-Mar-16 00:00:00.0000, -1.400909550046046E+08, -4.544373295435365E+06, 8.638757637583280E+07,
2460392.500000000, A.D. 2024-Mar-23 00:00:00.0000, -1.417488057093507E+08, -2.154892040293781E+07, 8.175966264622687E+07,
2460399.500000000, A.D. 2024-Mar-30 00:00:00.0000, -1.418779085532045E+08, -3.832132801717002E+07, 7.624986307676332E+07,
2460406.500000000, A.D. 2024-Apr-06 00:00:00.0000, -1.404910403889594E+08, -5.468458755904663E+07, 6.992519400653726E+07,
2460413.500000000, A.D. 2024-Apr-13 00:00:00.0000, -1.376196932543446E+08, -7.047039719559813E+07, 6.286151118936587E+07,
2460420.500000000, A.D. 2024-Apr-20 00:00:00.0000, -1.333128097278969E+08, -8.552153336787586E+07, 5.514192588670337E+07,
2460427.500000000, A.D. 2024-Apr-27 00:00:00.0000, -1.276352018697343E+08, -9.969380138194412E+07, 4.685516213612729E+07,
2460434.500000000, A.D. 2024-May-04 00:00:00.0000, -1.206657384103589E+08, -1.128575397312098E+08, 3.809391741983280E+07,
2460441.500000000, A.D. 2024-May-11 00:00:00.0000, -1.124953847753779E+08, -1.248986771963655E+08, 2.895328255453436E+07,
2460448.500000000, A.D. 2024-May-18 00:00:00.0000, -1.032251771278239E+08, -1.357193637903225E+08, 1.952927136956065E+07,
2460455.500000000, A.D. 2024-May-25 00:00:00.0000, -9.296421646964307E+07, -1.452382173618646E+08, 9.917503368110910E+06,
2460462.500000000, A.D. 2024-Jun-01 00:00:00.0000, -8.182776856802678E+07, -1.533902398762736E+08, 2.120372728839368E+05,
2460469.500000000, A.D. 2024-Jun-08 00:00:00.0000, -6.993547176187262E+07, -1.601264440128057E+08, -9.495681345710918E+06,
2460476.500000000, A.D. 2024-Jun-15 00:00:00.0000, -5.740963544108459E+07, -1.654132383074664E+08, -1.911770178475060E+07,
2460483.500000000, A.D. 2024-Jun-22 00:00:00.0000, -4.437371009834782E+07, -1.692316438316198E+08, -2.857024451580814E+07,
2460490.500000000, A.D. 2024-Jun-29 00:00:00.0000, -3.095096432827781E+07, -1.715763993087854E+08, -3.777421888222756E+07,
2460497.500000000, A.D. 2024-Jul-06 00:00:00.0000, -1.726334945097834E+07, -1.724549974400403E+08, -4.665561101226140E+07,
2460504.500000000, A.D. 2024-Jul-13 00:00:00.0000, -3.430535661852783E+06, -1.718866869266395E+08, -5.514575536247556E+07,
2460511.500000000, A.D. 2024-Jul-20 00:00:00.0000, 1.043089049487176E+07, -1.699014710667260E+08, -6.318150473353187E+07,
2460518.500000000, A.D. 2024-Jul-27 00:00:00.0000, 2.420808115581507E+07, -1.665391291761719E+08, -7.070531557381679E+07,
2460525.500000000, A.D. 2024-Aug-03 00:00:00.0000, 3.779245154074765E+07, -1.618482800537348E+08, -7.766526525249875E+07,
2460532.500000000, A.D. 2024-Aug-10 00:00:00.0000, 5.108009149210075E+07, -1.558855006443979E+08, -8.401501679939263E+07,
2460539.500000000, A.D. 2024-Aug-17 00:00:00.0000, 6.397208185551950E+07, -1.487145081674654E+08, -8.971374499980444E+07,
2460546.500000000, A.D. 2024-Aug-24 00:00:00.0000, 7.637473280777399E+07, -1.404054099976890E+08, -9.472603598348850E+07,
2460553.500000000, A.D. 2024-Aug-31 00:00:00.0000, 8.819976030591284E+07, -1.310340224033194E+08, -9.902177075003067E+07,
2460560.500000000, A.D. 2024-Sep-07 00:00:00.0000, 9.936441574616139E+07, -1.206812565168015E+08, -1.025760014351684E+08,
2460567.500000000, A.D. 2024-Sep-14 00:00:00.0000, 1.097915821878966E+08, -1.094325670653472E+08, -1.053688274457288E+08,
2460574.500000000, A.D. 2024-Sep-21 00:00:00.0000, 1.194098469375887E+08, -9.737745847158352E+07, -1.073852770091470E+08,
2460581.500000000, A.D. 2024-Sep-28 00:00:00.0000, 1.281535604226313E+08, -8.460904545696092E+07, -1.086151988522206E+08,
2460588.500000000, A.D. 2024-Oct-05 00:00:00.0000, 1.359628941136056E+08, -7.122366122671553E+07, -1.090531677318296E+08,
2460595.500000000, A.D. 2024-Oct-12 00:00:00.0000, 1.427839049846649E+08, -5.732050273228955E+07, -1.086984059594033E+08,
2460602.500000000, A.D. 2024-Oct-19 00:00:00.0000, 1.485686114587719E+08, -4.300130529174896E+07, -1.075547223244243E+08,
2460609.500000000, A.D. 2024-Oct-26 00:00:00.0000, 1.532750864361874E+08, -2.837003899318464E+07, -1.056304692221369E+08,
2460616.500000000, A.D. 2024-Nov-02 00:00:00.0000, 1.568675722949154E+08, -1.353261831130660E+07, -1.029385180210081E+08,
2460623.500000000, A.D. 2024-Nov-09 00:00:00.0000, 1.593166216283893E+08, 1.403384128831185E+06, -9.949625196488905E+07,
2460630.500000000, A.D. 2024-Nov-16 00:00:00.0000, 1.605992664548921E+08, 1.632902901965254E+07, -9.532557519154151E+07,
2460637.500000000, A.D. 2024-Nov-23 00:00:00.0000, 1.606992176613383E+08, 3.113431674493732E+07, -9.045293572908905E+07,
2460644.500000000, A.D. 2024-Nov-30 00:00:00.0000, 1.596070955437422E+08, 4.570851868262620E+07, -8.490935958029839E+07,
2460651.500000000, A.D. 2024-Dec-07 00:00:00.0000, 1.573206913237448E+08, 5.994054422675546E+07, -7.873049211830005E+07,
2460658.500000000, A.D. 2024-Dec-14 00:00:00.0000, 1.538452570321254E+08, 7.371935544291303E+07, -7.195664187569791E+07,
2460665.500000000, A.D. 2024-Dec-21 00:00:00.0000, 1.491938180636660E+08, 8.693443903010798E+07, -6.463282090094900E+07,
2460672.500000000, A.D. 2024-Dec-28 00:00:00.0000, 1.433875052656001E+08, 9.947634340907268E+07, -5.680877511567849E+07,
2460679.500000000, A.D. 2025-Jan-04 00:00:00.0000, 1.364559016900712E+08, 1.112372938513767E+08, -4.853899613725441E+07,
2460686.500000000, A.D. 2025-Jan-11 00:00:00.0000, 1.284373919218560E+08, 1.221118974176446E+08, -3.988270437450460E+07,
2460693.500000000, A.D. 2025-Jan-18 00:00:00.0000, 1.193794999832134E+08, 1.319979459167524E+08, -3.090379258590190E+07,
2460700.500000000, A.D. 2025-Jan-25 00:00:00.0000, 1.093392003085140E+08, 1.407973237029150E+08, -2.167071811176367E+07,
2460707.500000000, A.D. 2025-Feb-01 00:00:00.0000, 9.838318320680948E+07, 1.484170248383112E+08, -1.225633050258449E+07,
2460714.500000000, A.D. 2025-Feb-08 00:00:00.0000, 8.658805256507839E+07, 1.547702806033128E+08, -2.737619976196058E+06,
2460721.500000000, A.D. 2025-Feb-15 00:00:00.0000, 7.404042996843435E+07, 1.597777936532929E+08, 6.804628461135328E+06,
$$EOE